STARLINK-31244          
1 58856U 24019D   26068.56188810 -.00002174  00000+0 -69451-4 0  9991
2 58856  43.0044 249.5832 0002101 278.4832  81.5781 15.27599347119069
FLOCK 4G-29             
1 62642U 25009AK  26068.81464037  .00011147  00000+0  41831-3 0  9994
2 62642  97.4058 151.3683 0001366 288.0502  72.0588 15.27382318 63721
